BEIDOU-2 M4             
1 38251U 12018B   26197.11680253 -.00000075  00000+0  00000+0 0  9993
2 38251  55.6313 303.1119 0012121 272.2752  87.6168  1.86229294 96482
ARIRANG-3 (KOMPSAT-3)   
1 38338U 12025B   26197.18388311  .00000179  00000+0  44718-4 0  9997
2 38338  98.1185 154.1465 0006165  36.2798 323.8821 14.62229456755586
METOP-B                 
1 38771U 12049A   26197.19065088  .00000047  00000+0  41325-4 0  9993
2 38771  98.6489 248.1090 0001107 249.7770 110.3288 14.21446582717387
SJ-9A                   
1 38860U 12056A   26197.19609241  .00000456  00000+0  58573-4 0  9992
2 38860  97.6729 168.1025 0026065 158.5458 201.6856 14.85529697703896
COSMOS 2484 (RODNIK-S 6)
1 39059U 13001C   26197.12372152 -.00000007  00000+0 -12301-3 0  9997
2 39059  82.4990 203.9019 0025628 333.5720  26.4051 12.42940515612156
SARAL                   
1 39086U 13009A   26196.95043745  .00000014  00000+0  20973-4 0  9999
2 39086  98.5555  23.1540 0001742 164.8094 195.3143 14.32895907699723
STRAND-1                
1 39090U 13009E   26196.74002715  .00000123  00000+0  55624-4 0  9995
2 39090  98.3935  16.2735 0009437 139.6200 220.5689 14.37179078701162
BRITE-AUSTRIA           
1 39091U 13009F   26196.76529549  .00000075  00000+0  39948-4 0  9994
2 39091  98.4008  15.4957 0010793 149.0396 211.1429 14.36552666701154
GAOFEN-1                
1 39150U 13018A   26196.93207067 -.00000128  00000+0 -11017-4 0  9995
2 39150  97.9091 268.4139 0017083 168.7601 191.3993 14.76517962712481
NEE-01 PEGASO           
1 39151U 13018B   26196.33340642  .00001174  00000+0  11643-3 0  9991
2 39151  98.1256 341.4213 0013693  73.9409 286.3317 14.93789204714902
PROBA-V                 
1 39159U 13021A   26196.93582777  .00000014  00000+0  24298-4 0  9999
2 39159  98.3606 174.1262 0005231  58.2568 301.9121 14.23603473685200
ARIRANG-5 (KOMPSAT-5)   
1 39227U 13042A   26197.16367024  .00000087  00000+0  10525-4 0  9998
2 39227  97.6201  23.4569 0005338  55.3020 304.8708 15.04494952708214
GONETS-M 5              
1 39249U 13048A   26196.93278035 -.00000002  00000+0 -86307-4 0  9995
2 39249  82.4855 325.4606 0017389 148.1296 212.0840 12.42892580582458
GONETS-M 7              
1 39251U 13048C   26196.97571064 -.00000029  00000+0 -28333-3 0  9993
2 39251  82.4921 328.3710 0018173 149.3317 210.8829 12.42915302582419
FENGYUN 3C              
1 39260U 13052A   26196.94920980  .00000026  00000+0  34387-4 0  9992
2 39260  98.4999 169.5064 0013639 303.6275  56.3598 14.15760894662633
CASSIOPE                
1 39265U 13055A   26196.93840198  .00018495 -53874-6  19799-3 0  9994
2 39265  80.9127  31.7343 0282742 325.3550  32.9538 15.27448387672052
APRIZESAT 7             
1 39416U 13066A   26197.13427304  .00000553  00000+0  60072-4 0  9999
2 39416  97.7723 149.9413 0037265 114.3183 246.1934 14.91620251685543
ZACUBE-1 (TSHEPISOSAT)  
1 39417U 13066B   26196.93443538  .00001227  00000+0  98253-4 0  9995
2 39417  97.8008 159.4128 0044057 152.8424 207.5118 15.01330710685042
APRIZESAT 8             
1 39425U 13066K   26196.86164186  .00000361  00000+0  45114-4 0  9991
2 39425  97.8230 143.9322 0045546 189.6765 170.3579 14.87697038683938
TRITON-1                
1 39427U 13066M   26197.19826603  .00001550  00000+0  18956-3 0  9993
2 39427  97.8229 106.3430 0090645 138.8489 221.9606 14.81800243678385
