OBJECT_NAME,OBJECT_ID,EPOCH,MEAN_MOTION,ECCENTRICITY,INCLINATION,RA_OF_ASC_NODE,ARG_OF_PERICENTER,MEAN_ANOMALY,EPHEMERIS_TYPE,CLASSIFICATION_TYPE,NORAD_CAT_ID,ELEMENT_SET_NO,REV_AT_EPOCH,BSTAR,MEAN_MOTION_DOT,MEAN_MOTION_DDOT
BEIDOU-2 M4,2012-018B,2026-07-16T02:48:11.738592,1.86229294,.0012121,55.6313,303.1119,272.2752,87.6168,0,U,38251,999,9648,0,-.75E-6,0
ARIRANG-3 (KOMPSAT-3),2012-025B,2026-07-16T04:24:47.500704,14.62229456,.0006165,98.1185,154.1465,36.2798,323.8821,0,U,38338,999,75558,.44718E-4,.179E-5,0
METOP-B,2012-049A,2026-07-16T04:34:32.236032,14.21446582,.0001107,98.6489,248.1090,249.7770,110.3288,0,U,38771,999,71738,.41325E-4,.47E-6,0
SJ-9A,2012-056A,2026-07-16T04:42:22.384224,14.85529697,.0026065,97.6729,168.1025,158.5458,201.6856,0,U,38860,999,70389,.58573E-4,.456E-5,0
COSMOS 2484 (RODNIK-S 6),2013-001C,2026-07-16T02:58:09.539328,12.42940515,.0025628,82.4990,203.9019,333.5720,26.4051,0,U,39059,999,61215,-.12301E-3,-.7E-7,0
SARAL,2013-009A,2026-07-15T22:48:37.795680,14.32895907,.00017426,98.5555,23.1540,164.8094,195.3143,0,U,39086,999,69972,.20972802E-4,.14E-6,0
STRAND-1,2013-009E,2026-07-15T17:45:38.345760,14.37179078,.00094374,98.3935,16.2735,139.6200,220.5689,0,U,39090,999,70116,.55623538E-4,.123E-5,0
BRITE-AUSTRIA,2013-009F,2026-07-15T18:22:01.530336,14.36552666,.00107934,98.4008,15.4957,149.0396,211.1429,0,U,39091,999,70115,.39947583E-4,.75E-6,0
GAOFEN-1,2013-018A,2026-07-15T22:22:10.905888,14.76517962,.00170839,97.9091,268.4139,168.7601,191.3993,0,U,39150,999,71248,-.11016712E-4,-.128E-5,0
NEE-01 PEGASO,2013-018B,2026-07-15T08:00:06.314688,14.93789204,.00136937,98.1256,341.4213,73.9409,286.3317,0,U,39151,999,71490,.11642538E-3,.1174E-4,0
PROBA-V,2013-021A,2026-07-15T22:27:35.519328,14.23603473,.0005231,98.3606,174.1262,58.2568,301.9121,0,U,39159,999,68520,.24298E-4,.14E-6,0
ARIRANG-5 (KOMPSAT-5),2013-042A,2026-07-16T03:55:41.108736,15.04494952,.0005338,97.6201,23.4569,55.3020,304.8708,0,U,39227,999,70821,.10525E-4,.87E-6,0
GONETS-M 5,2013-048A,2026-07-15T22:23:12.222240,12.42892580,.0017389,82.4855,325.4606,148.1296,212.0840,0,U,39249,999,58245,-.86307006E-4,-.2E-7,0
GONETS-M 7,2013-048C,2026-07-15T23:25:01.399296,12.42915302,.00181733,82.4921,328.3710,149.3317,210.8829,0,U,39251,999,58241,-.28332725E-3,-.29E-6,0
FENGYUN 3C,2013-052A,2026-07-15T22:46:51.726720,14.15760894,.00136394,98.4999,169.5064,303.6275,56.3598,0,U,39260,999,66263,.34386917E-4,.26E-6,0
CASSIOPE,2013-055A,2026-07-15T22:31:17.931072,15.27448387,.02827423,80.9127,31.7343,325.3550,32.9538,0,U,39265,999,67205,.19799458E-3,.18495E-3,-.538735E-6
APRIZESAT 7,2013-066A,2026-07-16T03:13:21.190656,14.91620251,.0037265,97.7723,149.9413,114.3183,246.1934,0,U,39416,999,68554,.60072E-4,.553E-5,0
ZACUBE-1 (TSHEPISOSAT),2013-066B,2026-07-15T22:25:35.216832,15.01330710,.0044057,97.8008,159.4128,152.8424,207.5118,0,U,39417,999,68504,.98253E-4,.1227E-4,0
APRIZESAT 8,2013-066K,2026-07-15T20:40:45.856704,14.87697038,.0045546,97.8230,143.9322,189.6765,170.3579,0,U,39425,999,68393,.45114E-4,.361E-5,0
TRITON-1,2013-066M,2026-07-16T04:45:30.184992,14.81800243,.0090645,97.8229,106.3430,138.8489,221.9606,0,U,39427,999,67838,.18956E-3,.155E-4,0
